{"fetched_at":"2026-03-30T09:12:31Z","count":15922,"tles":[{"name":"STARLINK-35121","line1":"1 65737U 25216D   26087.71708215  .00030184  00000+0  10273-2 0  9998","line2":"2 65737  53.1581 244.7336 0001196  77.5472 282.5662 15.30192236 29454","category":"Starlink"}]}