{
  "norad_id": 65737,
  "name": "STARLINK-35121",
  "history": [
    {
      "epoch": "2026-03-28T17:12:35.897760",
      "apogee_km": 476.05798363569556,
      "perigee_km": 474.4185192080495,
      "latitude_deg": -3.3856612536576107,
      "longitude_deg": 102.53988639987074,
      "semi_major_axis_km": 6853.375251421872,
      "eccentricity": 0.00011961,
      "inclination_deg": 53.1581,
      "raan_deg": 244.7336,
      "arg_perigee_deg": 77.5472,
      "mean_anomaly_deg": 282.5662,
      "mean_motion_rev_day": 15.30192236
    }
  ]
}